STARLINK-31747          
1 59564U 24076A   26068.15734306 -.00002118  00000+0 -67479-4 0  9999
2 59564  43.0044   1.4223 0002300 246.2125 113.8486 15.27569115106533
FLOCK 4G-36             
1 62675U 25009BU  26068.70726311  .00013573  00000+0  51122-3 0  9993
2 62675  97.4053 151.0513 0003474 324.2456  35.8550 15.27209548 63701
